OBJECT_NAME,OBJECT_ID,EPOCH,MEAN_MOTION,ECCENTRICITY,INCLINATION,RA_OF_ASC_NODE,ARG_OF_PERICENTER,MEAN_ANOMALY,EPHEMERIS_TYPE,CLASSIFICATION_TYPE,NORAD_CAT_ID,ELEMENT_SET_NO,REV_AT_EPOCH,BSTAR,MEAN_MOTION_DOT,MEAN_MOTION_DDOT
SAR-LUPE 2,2007-030A,2026-07-08T22:47:39.848064,15.53356516,.00044877,98.1054,297.1387,224.2435,135.8458,0,U,31797,999,6031,.1599186E-3,.9988E-4,0
SAPPHIRE,2013-009C,2026-07-08T21:54:33.422112,14.35246400,.00111822,98.4271,8.8538,178.1699,181.9530,0,U,39088,999,69969,.38638555E-4,.68E-6,0
PRAETORIAN SDA_602,2025-203A,2026-07-08T22:16:44.262912,13.83887663,.00068894,81.3037,350.6367,132.0571,228.1173,0,U,65565,999,4170,.47827518E-4,.65E-6,0
PRAETORIAN SDA_603,2025-203B,2026-07-08T21:13:50.644416,13.83961920,.00105503,81.3042,350.5991,130.1922,230.0159,0,U,65566,999,4170,.100785E-3,.124E-5,0
PRAETORIAN SDA_604,2025-203C,2026-07-08T22:01:57.113760,13.83049823,.00063785,81.3059,351.0140,135.8734,224.2932,0,U,65567,999,4168,.47325438E-4,.64E-6,0
PRAETORIAN SDA_605,2025-203D,2026-07-08T21:04:52.972896,13.83199754,.00091593,81.3024,350.6951,128.3758,231.8223,0,U,65568,999,4169,.39299969E-4,.55E-6,0
PRAETORIAN SDA_606,2025-203E,2026-07-08T22:27:41.829984,13.83199812,.0006999,81.3060,350.8776,130.5042,229.6725,0,U,65569,999,4169,.44516631E-4,.61E-6,0
PRAETORIAN SDA_607,2025-203F,2026-07-08T22:17:26.829600,13.83758330,.00097769,81.3045,350.5109,129.8419,230.3599,0,U,65570,999,4171,.13711225E-3,.164E-5,0
PRAETORIAN SDA_608,2025-203G,2026-07-08T20:08:33.813600,13.83819050,.0006875,81.3014,350.7602,135.0161,225.1553,0,U,65571,999,4168,.46401096E-4,.63E-6,0
PRAETORIAN SDA_609,2025-203H,2026-07-08T21:50:53.385504,13.84211204,.00076994,81.3049,350.6739,129.6054,230.5784,0,U,65572,999,4170,.19679529E-3,.231E-5,0
PRAETORIAN SDA_610,2025-203J,2026-07-08T21:24:36.728928,13.83769338,.00076481,81.3015,350.6711,134.1093,226.0694,0,U,65573,999,4169,.29957645E-4,.45E-6,0
PRAETORIAN SDA_611,2025-203K,2026-07-08T19:51:57.784032,13.83311100,.00062698,81.3015,350.9126,138.2119,221.9517,0,U,65574,999,4167,.42526201E-3,.479E-5,0
PRAETORIAN SDA_612,2025-203L,2026-07-08T22:26:10.271040,13.85040554,.00101588,81.3035,350.3454,130.2527,229.9520,0,U,65575,999,4172,.16418626E-3,.198E-5,0
PRAETORIAN SDA_613,2025-203M,2026-07-08T20:13:55.400448,13.82767274,.00066092,81.3006,350.9112,129.4115,230.7627,0,U,65576,999,4167,.44997827E-4,.61E-6,0
PRAETORIAN SDA_614,2025-203N,2026-07-08T22:16:30.069120,13.84778230,.00080736,81.3019,350.4346,128.0308,232.1579,0,U,65577,999,4172,.19088261E-4,.33E-6,0
PRAETORIAN SDA_615,2025-203P,2026-07-08T21:50:55.431456,13.84438157,.00099098,81.3024,350.4291,128.9535,231.2506,0,U,65578,999,4171,.20273035E-3,.239E-5,0
PRAETORIAN SDA_616,2025-203Q,2026-07-08T21:35:55.121856,13.83269699,.00063475,81.3069,351.0044,136.4394,223.7264,0,U,65579,999,4168,.96322941E-4,.118E-5,0
PRAETORIAN SDA_617,2025-203R,2026-07-08T22:09:41.839488,13.83151705,.00083244,81.3044,350.8119,128.4965,231.6939,0,U,65580,999,4169,.4319294E-4,.59E-6,0
PRAETORIAN SDA_618,2025-203S,2026-07-08T21:02:30.691968,13.84225400,.00107178,81.3025,350.3904,132.6015,227.6047,0,U,65581,999,4171,.13922186E-3,.167E-5,0
PRAETORIAN SDA_619,2025-203T,2026-07-08T22:08:01.498848,13.83805987,.00091269,81.3049,350.6706,129.6096,230.5867,0,U,65582,999,4233,.13720696E-3,.164E-5,0
PRAETORIAN SDA_620,2025-203U,2026-07-08T21:10:29.715168,13.83286166,.00090289,81.3037,350.7348,144.5063,215.6696,0,U,65583,999,4169,-.19360649E-2,-.2112E-4,0
PRAETORIAN SDA_621,2025-203V,2026-07-08T22:10:39.487296,13.83803645,.00083603,81.3027,350.6025,123.7223,236.4732,0,U,65584,999,4170,.49897423E-4,.67E-6,0
PRAETORIAN SDA_601,2025-203W,2026-07-08T19:58:31.738656,13.83170119,.0006356,81.3049,351.0093,139.6014,220.5615,0,U,65585,999,4167,.32144068E-3,.364E-5,0
VICTUS HAZE PUMA,2026-142A,2026-07-08T23:52:21.728352,15.20818602,.00251476,97.4475,87.3699,289.0144,70.8367,0,U,69646,999,298,.12094877E-3,.2618E-4,0
